COSMOS 2058             
1 20465U 90010A   26170.45171816  .00003385  00000+0  19524-3 0  9998
2 20465  82.4690 307.1215 0008938 351.7079   8.4002 15.12029271957619
SL-14 R/B               
1 20466U 90010B   26170.46092669  .00000282  00000+0  31195-4 0  9990
2 20466  82.5015 171.8095 0018902 328.5074  31.5008 14.83647419943573
SL-14 R/B               
1 20511U 90018B   26170.57670830  .00000307  00000+0  35373-4 0  9993
2 20511  82.5211 127.8742 0017555 114.4546 245.8502 14.82217417937674
HST                     
1 20580U 90037B   26170.09908245  .00005359  00000+0  16756-3 0  9996
2 20580  28.4721  67.5085 0001723 162.4358 197.6298 15.30765373788863
SL-16 R/B               
1 20625U 90046B   26170.49305117  .00000026  00000+0  37859-4 0  9993
2 20625  71.0001  84.1054 0013156 158.2930 201.8753 14.15027214862797
COSMOS 2084             
1 20663U 90055A   26170.58444670  .00001536  00000+0  11825-3 0  9994
2 20663  62.7899 347.9084 0005669 283.0155  77.0313 15.06124063951661
SL-6 R/B(2)             
1 20666U 90055D   26170.57582680  .00001088  00000+0  91759-4 0  9997
2 20666  62.7822 267.2481 0041044   5.4872 354.6669 15.04009338953513
SL-8 R/B                
1 20775U 90078B   26170.47466214  .00022061  00000+0  62227-3 0  9997
2 20775  82.9018 159.5784 0350349  30.7761 331.3492 14.92414285824467
SL-8 R/B                
1 21088U 91006B   26170.55541178  .00000062  00000+0  46404-4 0  9996
2 21088  82.9425  94.2720 0023763 108.2849  64.2696 13.77506036778090
OKEAN-3                 
1 21397U 91039A   26170.46515664  .00002373  00000+0  16354-3 0  9993
2 21397  82.5163 238.1727 0013848 349.6617  10.4322 15.05334597880346
COSMOS 2151             
1 21422U 91042A   26170.52721153  .00000990  00000+0  76434-4 0  9994
2 21422  82.4961 345.4224 0013774  77.0140 283.2621 15.00443396878460
SL-14 R/B               
1 21423U 91042B   26170.58373598  .00000282  00000+0  32663-4 0  9997
2 21423  82.4928 124.6481 0015420 266.1929  93.7522 14.81903690868168
ERS-1                   
1 21574U 91050A   26170.31954595  .00000132  00000+0  57163-4 0  9992
2 21574  98.7797 191.0697 0030725 260.3837  99.3878 14.39518150830357
ARIANE 40 R/B           
1 21610U 91050F   26170.54535909  .00000190  00000+0  69238-4 0  9992
2 21610  98.1874 218.8705 0004317 116.3984 243.7650 14.42958188833682
INTERCOSMOS 25          
1 21819U 91086A   26170.50535566  .00000805  00000+0  16048-3 0  9990
2 21819  82.6052 248.4070 1483964 257.3886  85.7779 12.12198919509027
SL-8 R/B                
1 21876U 92008B   26170.53530670  .00000127  00000+0  11444-3 0  9994
2 21876  82.9260 192.0417 0033984 207.9918 261.7256 13.75977557723423
SL-8 R/B                
1 21938U 92020B   26170.47723561  .00000079  00000+0  65654-4 0  9992
2 21938  82.9306  78.1566 0029582  16.2910 157.5611 13.75549106715124
USA 81                  
1 21949U 92023A   26170.44039338  .00000141  00000+0  44966-4 0  9999
2 21949  85.0074  72.7071 0002748  82.6810 277.4695 14.32398757109358
COSMOS 2219             
1 22219U 92076A   26170.31274851  .00000315  00000+0  19006-3 0  9994
2 22219  71.0581 165.6281 0016700  40.7258 319.5110 14.14100467732740
SL-16 R/B               
1 22220U 92076B   26170.57203308  .00000245  00000+0  14588-3 0  9995
2 22220  71.0007 333.7570 0014732 295.4964 128.5212 14.16873450736263
COSMOS 2221             
1 22236U 92080A   26170.54607593  .00001029  00000+0  88107-4 0  9998
2 22236  82.5028 181.5045 0013475 203.9046 156.1553 14.96537995796028
SL-16 R/B               
1 22285U 92093B   26170.36252780 -.00000227  00000+0 -91609-4 0  9992
2 22285  71.0196 150.8244 0003838 184.3807 175.7283 14.15460289727540
COSMOS 2228             
1 22286U 92094A   26170.55986204  .00001488  00000+0  12483-3 0  9990
2 22286  82.5175 139.7701 0016689 323.9017  36.1077 14.97593617791309
SL-16 R/B               
1 22566U 93016B   26170.27215838  .00000160  00000+0  10635-3 0  9996
2 22566  71.0085   1.8275 0010091 180.5605 179.5508 14.15315197716548
COSMOS 2242             
1 22626U 93024A   26170.38669722  .00001290  00000+0  10993-3 0  9991
2 22626  82.5179 169.4385 0015161 328.4519  31.5792 14.96909187795602
SL-16 R/B               
1 22803U 93059B   26170.32499988 -.00000171  00000+0 -60638-4 0  9996
2 22803  70.9886 156.7954 0015286  50.3136 309.9333 14.17248060693935
ARIANE 40 R/B           
1 22830U 93061H   26170.16058469  .00000133  00000+0  64512-4 0  9997
2 22830  98.4819 236.9767 0010332 350.4120   9.6865 14.32908649708634
COSMOS 2278             
1 23087U 94023A   26170.58076203  .00000012  00000+0  30861-4 0  9999
2 23087  71.0550 321.9164 0010598 240.5958 119.4107 14.14398664659214
SL-16 R/B               
1 23088U 94023B   26170.51077369  .00000147  00000+0  10026-3 0  9996
2 23088  70.9992 217.0517 0002601 185.1508 174.9588 14.15026523660495
SL-16 R/B               
1 23343U 94074B   26170.59214620  .00000284  00000+0  44604-4 0  9999
2 23343  97.6989 197.2130 0005217 243.4082 231.4393 14.79504029702315
